NORAD_CAT_ID,OBJECT_NAME,OBJECT_TYPE,EPOCH,MEAN_MOTION,ECCENTRICITY,INCLINATION,RA_OF_ASC_NODE,ARG_OF_PERICENTER,MEAN_ANOMALY,BSTAR,MEAN_MOTION_DOT,MEAN_MOTION_DDOT,TLE_LINE0,TLE_LINE1,TLE_LINE2,SEMIMAJOR_AXIS,PERIOD,APOGEE,PERIGEE,DECAYED
52842.0,STARLINK-4046,PAYLOAD,2024-02-08 04:10:54,15.08832556,0.0001314,53.216,208.1275,102.6243,257.4897,0.00029979,4.486e-05,0.0,0 STARLINK-4046,1 52842U 22062N   24039.17423661  .00004486  00000-0  29979-3 0  9992,2 52842  53.2160 208.1275 0001314 102.6243 257.4897 15.08832556 91467,6917.903,95.438,540.677,538.859,0.0
52842.0,STARLINK-4046,PAYLOAD,2024-02-08 18:29:21,15.08842768,0.0001456,53.2171,205.4523,96.6492,263.4666,0.00020411,2.962e-05,0.0,0 STARLINK-4046,1 52842U 22062N   24039.77039345  .00002962  00000-0  20411-3 0  9999,2 52842  53.2171 205.4523 0001456  96.6492 263.4666 15.08842768 91063,6917.872,95.437,540.744,538.73,0.0
52842.0,STARLINK-4046,PAYLOAD,2024-02-09 10:23:13,15.08839376,0.0001403,53.216,202.4784,92.1112,268.0041,-5.6368e-06,-3.78e-06,0.0,0 STARLINK-4046,1 52842U 22062N   24040.43279693 -.00000378  00000-0 -56368-5 0  9999,2 52842  53.2160 202.4784 0001403  92.1112 268.0041 15.08839376 91653,6917.882,95.438,540.718,538.777,0.0
52842.0,STARLINK-4046,PAYLOAD,2024-02-09 18:20:09,15.08838209,0.0001287,53.2169,200.9901,89.0795,271.0345,-3.1835e-06,-3.39e-06,0.0,0 STARLINK-4046,1 52842U 22062N   24040.76400331 -.00000339  00000-0 -31835-5 0  9999,2 52842  53.2169 200.9901 0001287  89.0795 271.0345 15.08838209 91709,6917.886,95.438,540.641,538.861,0.0
52842.0,STARLINK-4046,PAYLOAD,2024-02-10 16:35:32,15.08860514,0.0001693,53.2177,196.8254,55.1488,304.9663,0.00015751,2.221e-05,0.0,0 STARLINK-4046,1 52842U 22062N   24041.69134645  .00002221  00000-0  15751-3 0  9991,2 52842  53.2177 196.8254 0001693  55.1488 304.9663 15.08860514 91844,6917.818,95.436,540.854,538.512,0.0
52842.0,STARLINK-4046,PAYLOAD,2024-02-11 10:04:45,15.08878898,0.0001068,53.2159,193.552,93.844,266.2675,0.00057782,8.93e-05,0.0,0 STARLINK-4046,1 52842U 22062N   24042.41996796  .00008930  00000-0  57782-3 0  9998,2 52842  53.2159 193.5520 0001068  93.8440 266.2675 15.08878898 91956,6917.761,95.435,540.365,538.888,0.0
52842.0,STARLINK-4046,PAYLOAD,2024-02-11 14:50:55,15.08842681,0.0001177,53.2165,192.6615,58.4349,301.6758,-0.00016488,-2.911e-05,0.0,0 STARLINK-4046,1 52842U 22062N   24042.61870008 -.00002911  00000-0 -16488-3 0  9990,2 52842  53.2165 192.6615 0001177  58.4349 301.6758 15.08842681 91490,6917.872,95.437,540.551,538.923,0.0
52842.0,STARLINK-4046,PAYLOAD,2024-02-11 16:26:18,15.08843871,0.0001172,53.216,192.3632,77.1612,282.9511,-0.00014477,-2.591e-05,0.0,0 STARLINK-4046,1 52842U 22062N   24042.68493869 -.00002591  00000-0 -14477-3 0  9993,2 52842  53.2160 192.3632 0001172  77.1612 282.9511 15.08843871 91992,6917.869,95.437,540.544,538.923,0.0
52842.0,STARLINK-4046,PAYLOAD,2024-02-12 14:41:43,15.08830948,0.0001303,53.2163,188.2026,81.5712,278.5428,-0.0003103,-5.222e-05,0.0,0 STARLINK-4046,1 52842U 22062N   24043.61230613 -.00005222  00000-0 -31030-3 0  9991,2 52842  53.2163 188.2026 0001303  81.5712 278.5428 15.08830948 91643,6917.908,95.438,540.674,538.872,0.0
52842.0,STARLINK-4046,PAYLOAD,2024-02-12 19:27:52,15.08833279,0.0001379,53.2164,187.3083,86.7444,273.3706,-0.0001586,-2.811e-05,0.0,0 STARLINK-4046,1 52842U 22062N   24043.81102691 -.00002811  00000-0 -15860-3 0  9991,2 52842  53.2164 187.3083 0001379  86.7444 273.3706 15.08833279 92169,6917.901,95.438,540.72,538.812,0.0
52842.0,STARLINK-4046,PAYLOAD,2024-02-13 14:32:32,15.08816855,0.0001661,53.2169,183.7386,83.6912,276.4269,0.00083332,0.00012991,0.0,0 STARLINK-4046,1 52842U 22062N   24044.60592908  .00012991  00000-0  83332-3 0  9990,2 52842  53.2169 183.7386 0001661  83.6912 276.4269 15.08816855 91797,6917.951,95.439,540.965,538.667,0.0
52842.0,STARLINK-4046,PAYLOAD,2024-02-13 16:07:54,15.08829133,0.0001248,53.2158,183.4463,66.7266,293.3857,0.00030409,4.554e-05,0.0,0 STARLINK-4046,1 52842U 22062N   24044.67216079  .00004554  00000-0  30409-3 0  9992,2 52842  53.2158 183.4463 0001248  66.7266 293.3857 15.08829133 92293,6917.914,95.438,540.642,538.915,0.0
52842.0,STARLINK-4046,PAYLOAD,2024-02-14 14:23:18,15.08847831,0.0001383,53.2165,179.2831,77.9782,282.1365,0.00040314,6.135e-05,0.0,0 STARLINK-4046,1 52842U 22062N   24045.59951745  .00006135  00000-0  40314-3 0  9993,2 52842  53.2165 179.2831 0001383  77.9782 282.1365 15.08847831 91946,6917.856,95.437,540.678,538.765,0.0
52842.0,STARLINK-4046,PAYLOAD,2024-02-14 15:58:41,15.08852393,0.0001335,53.2162,178.9868,74.1866,285.9273,0.00052874,8.14e-05,0.0,0 STARLINK-4046,1 52842U 22062N   24045.66575659  .00008140  00000-0  52874-3 0  9999,2 52842  53.2162 178.9868 0001335  74.1866 285.9273 15.08852393 92442,6917.843,95.437,540.631,538.784,0.0
52842.0,STARLINK-4046,PAYLOAD,2024-02-15 01:31:00,15.0884284,0.0001359,53.2166,177.1982,83.7858,276.3289,0.00023501,3.455e-05,0.0,0 STARLINK-4046,1 52842U 22062N   24046.06319948  .00003455  00000-0  23501-3 0  9990,2 52842  53.2166 177.1982 0001359  83.7858 276.3289 15.08842840 92501,6917.872,95.437,540.677,538.797,0.0
52842.0,STARLINK-4046,PAYLOAD,2024-02-15 14:14:06,15.08827039,0.0001923,53.2181,174.825,97.996,262.125,-0.00016678,-2.941e-05,0.0,0 STARLINK-4046,1 52842U 22062N   24046.59312870 -.00002941  00000-0 -16678-3 0  9993,2 52842  53.2181 174.8250 0001923  97.9960 262.1250 15.08827039 92096,6917.92,95.438,541.115,538.455,0.0
52842.0,STARLINK-4046,PAYLOAD,2024-02-15 17:24:52,15.08833177,0.0001882,53.2184,174.2289,94.7648,265.3559,1.1822e-05,-1e-06,0.0,0 STARLINK-4046,1 52842U 22062N   24046.72560755 -.00000100  00000-0  11822-4 0  9996,2 52842  53.2184 174.2289 0001882  94.7648 265.3559 15.08833177 92601,6917.901,95.438,541.068,538.464,0.0
52842.0,STARLINK-4046,PAYLOAD,2024-02-16 12:29:29,15.0884755,0.0001772,53.2178,170.661,94.6432,265.4763,0.00022418,3.282e-05,0.0,0 STARLINK-4046,1 52842U 22062N   24047.52048310  .00003282  00000-0  22418-3 0  9998,2 52842  53.2178 170.6610 0001772  94.6432 265.4763 15.08847550 92721,6917.857,95.437,540.948,538.496,0.0
52842.0,STARLINK-4046,PAYLOAD,2024-02-16 14:04:52,15.08849738,0.0001845,53.2178,170.3632,96.0342,264.0861,0.00029695,4.442e-05,0.0,0 STARLINK-4046,1 52842U 22062N   24047.58672269  .00004442  00000-0  29695-3 0  9993,2 52842  53.2178 170.3632 0001845  96.0342 264.0861 15.08849738 92240,6917.851,95.437,540.992,538.439,0.0
52842.0,STARLINK-4046,PAYLOAD,2024-02-16 17:15:39,15.08854364,0.0001751,53.2167,169.7656,84.7691,275.3501,0.00069508,0.00010796,0.0,0 STARLINK-4046,1 52842U 22062N   24047.71920364  .00010796  00000-0  69508-3 0  9996,2 52842  53.2167 169.7656 0001751  84.7691 275.3501 15.08854364 92262,6917.836,95.437,540.913,538.49,0.0
52842.0,STARLINK-4046,PAYLOAD,2024-02-17 12:20:17,15.08839571,0.000158,53.216,166.1997,92.3424,267.775,0.00017182,2.448e-05,0.0,0 STARLINK-4046,1 52842U 22062N   24048.51408885  .00002448  00000-0  17182-3 0  9990,2 52842  53.2160 166.1997 0001580  92.3424 267.7750 15.08839571 92874,6917.882,95.438,540.84,538.654,0.0
52842.0,STARLINK-4046,PAYLOAD,2024-02-17 13:55:40,15.088424,0.000161,53.2162,165.9003,105.3116,254.8054,0.00024516,3.616e-05,0.0,0 STARLINK-4046,1 52842U 22062N   24048.58032760  .00003616  00000-0  24516-3 0  9999,2 52842  53.2162 165.9003 0001610 105.3116 254.8054 15.08842400 92394,6917.873,95.437,540.852,538.624,0.0
52842.0,STARLINK-4046,PAYLOAD,2024-02-17 15:31:03,15.08845201,0.0001554,53.2162,165.6032,102.7386,257.378,0.00035077,5.3e-05,0.0,0 STARLINK-4046,1 52842U 22062N   24048.64656737  .00005300  00000-0  35077-3 0  9998,2 52842  53.2162 165.6032 0001554 102.7386 257.3780 15.08845201 92408,6917.864,95.437,540.805,538.654,0.0
52842.0,STARLINK-4046,PAYLOAD,2024-02-18 13:46:27,15.08854818,0.0001544,53.2154,161.44,95.3412,264.7757,0.00082028,0.00012796,0.0,0 STARLINK-4046,1 52842U 22062N   24049.57392516  .00012796  00000-0  82028-3 0  9998,2 52842  53.2154 161.4400 0001544  95.3412 264.7757 15.08854818 92543,6917.835,95.437,540.768,538.632,0.0
52842.0,STARLINK-4046,PAYLOAD,2024-02-18 16:57:13,15.0886554,0.0001564,53.2159,160.8443,97.0007,263.1163,0.001116,0.0001753,0.0,0 STARLINK-4046,1 52842U 22062N   24049.70640323  .00017530  00000-0  11160-2 0  9994,2 52842  53.2159 160.8443 0001564  97.0007 263.1163 15.08865540 93054,6917.802,95.436,540.749,538.585,0.0
52842.0,STARLINK-4046,PAYLOAD,2024-02-19 12:01:51,15.08840205,0.0001384,53.2152,157.2775,99.2472,260.8676,9.036e-05,1.15e-05,0.0,0 STARLINK-4046,1 52842U 22062N   24050.50128809  .00001150  00000-0  90360-4 0  9996,2 52842  53.2152 157.2775 0001384  99.2472 260.8676 15.08840205 93172,6917.88,95.438,540.702,538.787,0.0
52842.0,STARLINK-4046,PAYLOAD,2024-02-19 13:37:14,15.08840811,0.0001355,53.2148,156.9802,98.8563,261.2583,0.00011983,1.62e-05,0.0,0 STARLINK-4046,1 52842U 22062N   24050.56752802  .00001620  00000-0  11983-3 0  9993,2 52842  53.2148 156.9802 0001355  98.8563 261.2583 15.08840811 92699,6917.878,95.438,540.68,538.806,0.0
52842.0,STARLINK-4046,PAYLOAD,2024-02-20 11:52:39,15.08817008,0.0001593,53.2153,152.8167,104.6526,255.4643,-0.00017967,-3.144e-05,0.0,0 STARLINK-4046,1 52842U 22062N   24051.49490555 -.00003144  00000-0 -17967-3 0  9993,2 52842  53.2153 152.8167 0001593 104.6526 255.4643 15.08817008 93328,6917.951,95.439,540.918,538.714,0.0
52842.0,STARLINK-4046,PAYLOAD,2024-02-20 13:28:02,15.08827348,0.0001454,53.2158,152.5191,93.2964,266.8194,-5.977e-05,-1.239e-05,0.0,0 STARLINK-4046,1 52842U 22062N   24051.56114427 -.00001239  00000-0 -59770-4 0  9994,2 52842  53.2158 152.5191 0001454  93.2964 266.8194 15.08827348 92843,6917.919,95.438,540.79,538.778,0.0
52842.0,STARLINK-4046,PAYLOAD,2024-02-21 11:43:26,15.08850137,0.0001639,53.2168,148.3572,96.389,263.7289,0.00059235,9.154e-05,0.0,0 STARLINK-4046,1 52842U 22062N   24052.48849923  .00009154  00000-0  59235-3 0  9999,2 52842  53.2168 148.3572 0001639  96.3890 263.7289 15.08850137 93470,6917.849,95.437,540.848,538.581,0.0
